#aV2008  1  9  0  0   .00000000      96 DD+AD WGS84 FIT  NGA
## 1461 259200.00000000   900.00000000 54474  .0000000000000
+   32     1  2  3  4  5  6  7  8  9 10 11 12 13 14 15 16 17
+         18 19 20 21 22 23 24 25 26 27 28 29 30 31 32  0  0
+          0  0  0  0  0  0  0  0  0  0  0  0  0  0  0  0  0
+          0  0  0  0  0  0  0  0  0  0  0  0  0  0  0  0  0
+          0  0  0  0  0  0  0  0  0  0  0  0  0  0  0  0  0
++         0  0  0  0  0  0  0  0  0  0  0  0  0  0  0  0  0
++         0  0  0  0  0  0  0  0  0  0  0  0  0  0  0  0  0
++         0  0  0  0  0  0  0  0  0  0  0  0  0  0  0  0  0
++         0  0  0  0  0  0  0  0  0  0  0  0  0  0  0  0  0
++         0  0  0  0  0  0  0  0  0  0  0  0  0  0  0  0  0
%c cc cc ccc ccc cccc cccc cccc cccc ccccc ccccc ccccc ccccc
%c cc cc ccc ccc cccc cccc cccc cccc ccccc ccccc ccccc ccccc
%f  0.0000000  0.000000000  0.00000000000  0.000000000000000
%f  0.0000000  0.000000000  0.00000000000  0.000000000000000
%i    0    0    0    0      0      0      0      0         0
%i    0    0    0    0      0      0      0      0         0
/*      NGA, ST. LOUIS,MO.                                  
/*   EPHEMERIS COMPUTED FROM  3 DAYS OF DATA                
/* CCCCCCCCCCCCCCCCCCCCCCCCCCCCCCCCCCCCCCCCCCCCCCCCCCCCCCCCC
/* CCCCCCCCCCCCCCCCCCCCCCCCCCCCCCCCCCCCCCCCCCCCCCCCCCCCCCCCC
*  2008  1  9  9 15   .00000000                                                 
P  1  16662.376413 -16450.394786 -12245.113564    177.891295                    
V  1  -5293.846103  15067.015662 -27029.115382       .024781                    
P  2 -18632.906113  12657.764489  13629.695552    164.872098                    
V  2 -18009.152443   -284.263940 -24347.894309       .029688                    
P  3  10663.230871 -23590.989306   4798.045733    170.258505                    
V  3   2167.891053   7396.482969  30359.086026       .054547                    
P  4 -25900.957664   5738.536428   3423.795710    -48.935094                    
V  4  -4761.282676  -2442.271240 -30735.650274      -.057398                    
P  5  15671.065720  21200.040418  -4066.019022    638.251194                    
V  5  -5644.064158  -1357.561260 -30678.528548       .175692                    
P  6  10904.847360  13709.561211  20140.959925    159.592970                    
V  6  -9803.207996  23346.185359 -10720.456322      -.148976                    
P  7  13323.068442   9572.445516  21219.194280     42.507982                    
V  7  -8935.833534  24725.321556  -5656.564237       .325000                    
P  8 -26471.634799   -519.278946   4147.076573   -136.427284                    
V  8   5133.139253  -2187.677365  31333.263081      -.012408                    
P  9   3925.914987  14846.486848 -22294.075364    104.840471                    
V  9 -26398.833616   4636.548492  -1433.941060       .016964                    
P 10  -5098.447887  16418.217462  20028.605410   -201.642136                    
V 10 -16272.107702 -20043.188822  12536.473884      -.155822                    
P 11  -7737.336727 -15012.126822 -20664.910660     26.950000                    
V 11  24805.487051  -8507.550850  -2801.435376       .001154                    
P 12  10870.420201  22942.253906  -7841.919764   -353.732402                    
V 12  -8148.834340  -6412.720350 -29637.990620      -.010000                    
P 13 -10131.683382 -11516.897891  21583.558348    233.135593                    
V 13  11858.485516 -24878.060326  -7644.131258       .023122                    
P 14  16735.236544  -6098.902061 -19568.015067   -306.930748                    
V 14  -9170.463790  23308.675868 -15117.097391       .028543                    
P 15  -5543.802935  25296.511241  -5897.424421    -71.060789                    
V 15  -5387.130748   5964.111338  30481.001711      -.007688                    
P 16   9143.628573 -12665.912566  21534.633824    131.337307                    
V 16  16725.309460  21429.031649   5689.710370       .008767                    
P 17 -17060.938738   5019.272762 -19661.095895     44.781981                    
V 17   8499.826664 -23609.610718 -13535.814305      -.008745                    
P 18  19186.988693  16566.617750  -8328.659287   -213.483289                    
V 18   4073.093867  10274.654097  28880.671837       .027393                    
P 19   7028.904703 -24679.790281  -6432.531728     15.914847                    
V 19   6313.352626  -6170.653995  30342.286124       .016548                    
P 20 -12906.018773 -22576.593604  -5633.954112    122.918313                    
V 20   6733.569258   3600.856240 -30389.808876      -.007551                    
P 21  22735.052309   6870.137989  12629.709936     73.931919                    
V 21 -15272.301490   4085.207312  24991.933154      -.006536                    
P 22  18748.862098   3782.511287 -18285.894781    206.663206                    
V 22  12190.857235  20246.687141  16507.237550       .006566                    
P 23  -1782.434113 -21951.418448  14610.277867    324.850751                    
V 23   8996.541400 -16560.503075 -23904.188303       .030453                    
P 24  11129.423323  13399.695628  20145.573778     60.918135                    
V 24 -25102.812254   3379.593230  12010.397885       .032212                    
P 25 -17438.132251  -8935.228238  18224.335806    498.962412                    
V 25  21512.817053  -6627.830827  17850.182587       .033963                    
P 26  -8358.244665  24627.639793  -4058.602344    150.372019                    
V 26  -3910.765882   3314.868545  32278.866100       .108330                    
P 27 -22246.299558  -5567.580840  14223.444709    159.707281                    
V 27  16199.473702  -4948.843969  24388.730860       .025502                    
P 28 -19431.916366  -7055.029918 -16509.780450    -13.389512                    
V 28 -11391.851951 -18319.357233  20443.370403      -.005709                    
P 29   4478.249202  19948.193033  17093.585056    -84.604322                    
V 29 -10086.154315  19036.071203 -19730.772891       .107267                    
P 30  18233.131533  19215.713516   2241.548163     59.227585                    
V 30   -324.362430   4503.311508 -31237.940513       .014134                    
P 31  24786.068342  -7708.341597   6047.086911     -4.632559                    
V 31   7657.467027   1404.084940 -30573.359619      -.013801                    
P 32  14235.933753  -4920.273630 -21402.207393    196.706608                    
V 32  15016.321781  23946.545242   4547.195306       .108332                    
EOF
